OBJECT_NAME,OBJECT_ID,EPOCH,MEAN_MOTION,ECCENTRICITY,INCLINATION,RA_OF_ASC_NODE,ARG_OF_PERICENTER,MEAN_ANOMALY,EPHEMERIS_TYPE,CLASSIFICATION_TYPE,NORAD_CAT_ID,ELEMENT_SET_NO,REV_AT_EPOCH,BSTAR,MEAN_MOTION_DOT,MEAN_MOTION_DDOT
SES-2,2011-049A,2026-07-23T14:16:49.017792,1.00272608,.00030503,0.1484,90.5621,27.0935,310.8672,0,U,37809,999,5432,0,-.191E-5,0
ARABSAT-5C,2011-049B,2026-07-23T13:04:38.624736,1.00275690,.00037891,0.0480,4.8829,137.7410,14.8539,0,U,37810,999,5440,0,.129E-5,0
EUTELSAT 7 WEST A,2011-051A,2026-07-23T09:31:42.763872,1.00272387,.00050034,0.0607,7.2879,123.3696,306.0689,0,U,37816,999,5424,0,-.56E-6,0
QUETZSAT 1,2011-054A,2026-07-23T07:50:04.142976,1.00271082,.00029994,0.0327,292.7938,193.8826,214.8943,0,U,37826,999,5023,0,-.237E-5,0
INTELSAT 18 (IS-18),2011-056A,2026-07-22T20:43:54.391872,1.00272080,.00019995,0.0306,264.0516,225.2474,302.2680,0,U,37834,999,5416,0,.57E-6,0
EUTELSAT 16A,2011-057A,2026-07-23T13:03:38.720160,1.00271624,.00054946,0.0509,40.5837,83.4115,29.1778,0,U,37836,999,770,0,.109E-5,0
VIASAT-1,2011-059A,2026-07-23T12:26:12.308928,1.00272650,.00026258,0.0223,55.2928,57.9925,259.4203,0,U,37843,999,4768,0,0,0
ASIASAT 7,2011-069A,2026-07-22T22:05:17.114208,1.00275086,.0001891,0.0550,258.5856,186.2952,292.5752,0,U,37933,999,4521,0,-.33E-5,0
BEIDOU-2 IGSO-5,2011-073A,2026-07-02T17:30:18.330912,1.00270596,.01145273,47.6496,271.3544,222.0502,141.5350,0,U,37948,999,5329,0,-.128E-5,0
LUCH-5A,2011-074B,2026-07-23T13:29:46.984704,1.00274982,.0002919,8.8434,73.2704,62.5670,174.9527,0,U,37951,999,5341,0,-.52E-6,0
NIGCOMSAT 1R,2011-077A,2026-07-23T13:11:15.490176,1.00275071,.00025031,0.0539,236.1883,118.6640,186.7618,0,U,38014,999,5332,0,.15E-5,0
WGS F4 (USA 233),2012-003A,2026-07-23T05:12:38.544192,1.00271399,.00003804,0.0188,55.0891,260.4124,152.0193,0,U,38070,999,4451,0,-.21E-5,0
SES-4,2012-007A,2026-07-23T07:44:51.222048,1.00272967,.00025097,0.0236,33.2076,93.6615,268.4051,0,U,38087,999,5258,0,-.163E-5,0
BEIDOU-2 G5,2012-008A,2026-07-23T14:58:26.679360,1.00273688,.00070186,3.6625,69.4652,271.4470,243.7225,0,U,38091,999,5273,0,.58E-6,0
MUOS-1,2012-009A,2026-07-23T12:30:34.391232,1.00271245,.00562591,5.5480,47.1000,3.7788,338.0566,0,U,38093,999,5280,0,-.127E-5,0
INTELSAT 22 (IS-22),2012-011A,2026-07-23T13:19:39.499392,1.00271600,.00020321,0.0083,21.9915,124.2010,67.1026,0,U,38098,999,755,0,-.54E-6,0
APSTAR-7,2012-013A,2026-07-22T15:06:25.706016,1.00271842,.00033755,0.0392,95.5918,33.4704,114.4149,0,U,38107,999,5216,0,-.98E-6,0
YAHSAT 1B,2012-016A,2026-07-23T11:29:54.833568,1.00271655,.00030221,0.0929,88.8654,27.4399,44.9797,0,U,38245,999,4597,0,.131E-5,0
AEHF-2 (USA 235),2012-019A,2026-07-23T09:29:05.515008,1.00271641,.00021241,6.7315,57.2087,69.9601,299.7464,0,U,38254,999,735,0,-.136E-5,0
JCSAT-13,2012-023A,2026-07-23T13:00:38.746368,1.00271548,.00026032,0.0361,262.2708,226.8345,131.3335,0,U,38331,999,5190,0,-.351E-5,0
VINASAT-2,2012-023B,2026-07-23T13:36:37.870272,1.00270895,.00024762,0.0285,311.3850,167.3130,158.5960,0,U,38332,999,4702,0,-.324E-5,0
NIMIQ 6,2012-026A,2026-07-23T14:15:41.625792,1.00271129,.00030427,0.0546,262.6568,220.8096,300.6707,0,U,38342,999,5077,0,-.169E-5,0
ZHONGXING-2A,2012-028A,2026-07-23T13:27:01.291968,1.00273322,.00016393,1.5463,83.4211,28.7634,129.1051,0,U,38352,999,5166,0,-.289E-5,0
INTELSAT 19 (IS-19),2012-030A,2026-07-23T07:42:21.750048,1.00273053,.0003101,0.0161,51.5069,68.6402,102.4961,0,U,38356,999,5081,0,-.52E-6,0
ECHOSTAR 17,2012-035A,2026-07-23T04:31:38.577216,1.00272312,.00021014,0.0184,59.5338,59.7599,142.4347,0,U,38551,999,5142,0,-.71E-6,0
METEOSAT-10 (MSG-3),2012-035B,2026-07-23T07:51:05.624352,1.00273350,.00015017,4.7548,60.8386,20.6416,337.4080,0,U,38552,999,5121,0,-.6E-7,0
SES-5,2012-036A,2026-07-23T13:00:31.519872,1.00270602,.00022725,0.0431,324.2324,152.1642,24.9746,0,U,38652,999,4482,0,.38E-6,0
INTELSAT 20 (IS-20),2012-043A,2026-07-23T13:18:39.594816,1.00272321,.00013221,0.0140,78.8330,106.5707,24.0487,0,U,38740,999,5111,0,-.2E-6,0
HYLAS 2,2012-043B,2026-07-21T06:26:14.779968,1.00330437,.00015995,2.5130,80.6497,221.2518,21.2291,0,U,38741,999,5111,0,-.263E-5,0
INTELSAT 21 (IS-21),2012-045A,2026-07-23T09:17:14.151840,1.00270708,.00019223,0.0335,261.9243,230.4888,250.0122,0,U,38749,999,5088,0,-.28E-5,0
ASTRA 2F,2012-051A,2026-07-23T13:07:08.385312,1.00274308,.00033487,0.0688,251.1836,289.3489,345.6934,0,U,38778,999,4150,0,.155E-5,0
GSAT-10,2012-051B,2026-07-23T13:22:46.698816,1.00272373,.00076638,0.0709,262.3819,194.2162,128.3982,0,U,38779,999,5046,0,-.16E-5,0
