SES-2                   
1 37809U 11049A   26204.59501178 -.00000191  00000+0  00000+0 0  9992
2 37809   0.1484  90.5621 0003050  27.0935 310.8672  1.00272608 54320
ARABSAT-5C              
1 37810U 11049B   26204.54489149  .00000129  00000+0  00000+0 0  9992
2 37810   0.0480   4.8829 0003789 137.7410  14.8539  1.00275690 54407
EUTELSAT 7 WEST A       
1 37816U 11051A   26204.39702273 -.00000056  00000+0  00000+0 0  9990
2 37816   0.0607   7.2879 0005003 123.3696 306.0689  1.00272387 54248
QUETZSAT 1              
1 37826U 11054A   26204.32643684 -.00000237  00000+0  00000+0 0  9998
2 37826   0.0327 292.7938 0002999 193.8826 214.8943  1.00271082 50238
INTELSAT 18 (IS-18)     
1 37834U 11056A   26203.86382398  .00000057  00000+0  00000+0 0  9998
2 37834   0.0306 264.0516 0001999 225.2474 302.2680  1.00272080 54161
EUTELSAT 16A            
1 37836U 11057A   26204.54419815  .00000109  00000+0  00000+0 0  9990
2 37836   0.0509  40.5837 0005494  83.4115  29.1778  1.00271624  7705
VIASAT-1                
1 37843U 11059A   26204.51819802  .00000000  00000+0  00000+0 0  9997
2 37843   0.0223  55.2928 0002625  57.9925 259.4203  1.00272650 47680
ASIASAT 7               
1 37933U 11069A   26203.92033697 -.00000330  00000+0  00000+0 0  9999
2 37933   0.0550 258.5856 0001891 186.2952 292.5752  1.00275086 45211
BEIDOU-2 IGSO-5         
1 37948U 11073A   26183.72937883 -.00000128  00000+0  00000+0 0  9990
2 37948  47.6496 271.3544 0114527 222.0502 141.5350  1.00270596 53296
LUCH-5A                 
1 37951U 11074B   26204.56234936 -.00000052  00000+0  00000+0 0  9996
2 37951   8.8434  73.2704 0002919  62.5670 174.9527  1.00274982 53415
NIGCOMSAT 1R            
1 38014U 11077A   26204.54948484  .00000150  00000+0  00000+0 0  9996
2 38014   0.0539 236.1883 0002503 118.6640 186.7618  1.00275071 53325
WGS F4 (USA 233)        
1 38070U 12003A   26204.21711278 -.00000210  00000+0  00000+0 0  9999
2 38070   0.0188  55.0891 0000380 260.4124 152.0193  1.00271399 44512
SES-4                   
1 38087U 12007A   26204.32281507 -.00000163  00000+0  00000+0 0  9997
2 38087   0.0236  33.2076 0002509  93.6615 268.4051  1.00272967 52586
BEIDOU-2 G5             
1 38091U 12008A   26204.62391990  .00000058  00000+0  00000+0 0  9996
2 38091   3.6625  69.4652 0007018 271.4470 243.7225  1.00273688 52735
MUOS-1                  
1 38093U 12009A   26204.52123138 -.00000127  00000+0  00000+0 0  9993
2 38093   5.5480  47.1000 0056259   3.7788 338.0566  1.00271245 52807
INTELSAT 22 (IS-22)     
1 38098U 12011A   26204.55531828 -.00000054  00000+0  00000+0 0  9992
2 38098   0.0083  21.9915 0002032 124.2010  67.1026  1.00271600  7551
APSTAR-7                
1 38107U 12013A   26203.62946419 -.00000098  00000+0  00000+0 0  9996
2 38107   0.0392  95.5918 0003375  33.4704 114.4149  1.00271842 52164
YAHSAT 1B               
1 38245U 12016A   26204.47910687  .00000131  00000+0  00000+0 0  9991
2 38245   0.0929  88.8654 0003022  27.4399  44.9797  1.00271655 45976
AEHF-2 (USA 235)        
1 38254U 12019A   26204.39520272 -.00000136  00000+0  00000+0 0  9998
2 38254   6.7315  57.2087 0002124  69.9601 299.7464  1.00271641  7353
JCSAT-13                
1 38331U 12023A   26204.54211512 -.00000351  00000+0  00000+0 0  9999
2 38331   0.0361 262.2708 0002603 226.8345 131.3335  1.00271548 51900
VINASAT-2               
1 38332U 12023B   26204.56710498 -.00000324  00000+0  00000+0 0  9999
2 38332   0.0285 311.3850 0002476 167.3130 158.5960  1.00270895 47026
NIMIQ 6                 
1 38342U 12026A   26204.59423178 -.00000169  00000+0  00000+0 0  9999
2 38342   0.0546 262.6568 0003042 220.8096 300.6707  1.00271129 50773
ZHONGXING-2A            
1 38352U 12028A   26204.56043162 -.00000289  00000+0  00000+0 0  9993
2 38352   1.5463  83.4211 0001639  28.7634 129.1051  1.00273322 51667
INTELSAT 19 (IS-19)     
1 38356U 12030A   26204.32108507 -.00000052  00000+0  00000+0 0  9997
2 38356   0.0161  51.5069 0003101  68.6402 102.4961  1.00273053 50810
ECHOSTAR 17             
1 38551U 12035A   26204.18864094 -.00000071  00000+0  00000+0 0  9994
2 38551   0.0184  59.5338 0002101  59.7599 142.4347  1.00272312 51423
METEOSAT-10 (MSG-3)     
1 38552U 12035B   26204.32714843 -.00000006  00000+0  00000+0 0  9995
2 38552   4.7548  60.8386 0001501  20.6416 337.4080  1.00273350 51215
SES-5                   
1 38652U 12036A   26204.54203148  .00000038  00000+0  00000+0 0  9996
2 38652   0.0431 324.2324 0002272 152.1642  24.9746  1.00270602 44826
INTELSAT 20 (IS-20)     
1 38740U 12043A   26204.55462494 -.00000020  00000+0  00000+0 0  9996
2 38740   0.0140  78.8330 0001322 106.5707  24.0487  1.00272321 51113
HYLAS 2                 
1 38741U 12043B   26202.26822662 -.00000263  00000+0  00000+0 0  9999
2 38741   2.5130  80.6497 0001599 221.2518  21.2291  1.00330437 51111
INTELSAT 21 (IS-21)     
1 38749U 12045A   26204.38696935 -.00000280  00000+0  00000+0 0  9995
2 38749   0.0335 261.9243 0001922 230.4888 250.0122  1.00270708 50886
ASTRA 2F                
1 38778U 12051A   26204.54662483  .00000155  00000+0  00000+0 0  9993
2 38778   0.0688 251.1836 0003348 289.3489 345.6934  1.00274308 41503
GSAT-10                 
1 38779U 12051B   26204.55748494 -.00000160  00000+0  00000+0 0  9999
2 38779   0.0709 262.3819 0007663 194.2162 128.3982  1.00272373 50463
